[{"OBJECT_NAME":"STARLINK-31009","OBJECT_ID":"2023-191Y","EPOCH":"2026-03-09T12:09:56.109024","MEAN_MOTION":15.27125173,"ECCENTRICITY":0.00020466,"INCLINATION":42.9983,"RA_OF_ASC_NODE":104.4335,"ARG_OF_PERICENTER":225.1892,"MEAN_ANOMALY":134.8793,"EPHEMERIS_TYPE":0,"CLASSIFICATION_TYPE":"U","NORAD_CAT_ID":58530,"ELEMENT_SET_NO":999,"REV_AT_EPOCH":12546,"BSTAR":0.002937283,"MEAN_MOTION_DOT":0.00080329,"MEAN_MOTION_DDOT":0},{"OBJECT_NAME":"HAWK-11B","OBJECT_ID":"2024-247C","EPOCH":"2026-03-09T10:44:06.809856","MEAN_MOTION":15.2884707,"ECCENTRICITY":0.00046902,"INCLINATION":45.0161,"RA_OF_ASC_NODE":115.761,"ARG_OF_PERICENTER":333.0326,"MEAN_ANOMALY":27.0314,"EPHEMERIS_TYPE":0,"CLASSIFICATION_TYPE":"U","NORAD_CAT_ID":62379,"ELEMENT_SET_NO":999,"REV_AT_EPOCH":6773,"BSTAR":0.00032841927,"MEAN_MOTION_DOT":9.093e-5,"MEAN_MOTION_DDOT":0}]
